{"type": "FeatureCollection", "features": [ {"type": "Feature", "properties": {"norad_id": 34464, "name": "COSMOS 2251 DEB", "group": "cosmos-2251-debris", "lat": -72.60921283094268, "lon": 25.460142901650485, "alt_km": 483.9829435582369, "timestamp": "2025-12-06T07:31:40.630160+00:00", "meta": {"OBJECT_NAME": "COSMOS 2251 DEB", "OBJECT_ID": "1993-036TH", "EPOCH": "2025-12-04T16:32:36.857472", "MEAN_MOTION": 15.25289765, "ECCENTRICITY": 0.00171288, "INCLINATION": 73.9903, "RA_OF_ASC_NODE": 95.3572, "ARG_OF_PERICENTER": 267.4892, "MEAN_ANOMALY": 92.4347, "EPHEMERIS_TYPE": 0, "CLASSIFICATION_TYPE": "U", "NORAD_CAT_ID": 34464, "ELEMENT_SET_NO": 999, "REV_AT_EPOCH": 89717, "BSTAR": 0.0058235729, "MEAN_MOTION_DOT": 0.00150197, "MEAN_MOTION_DDOT": 0}, "tle": {"line1": "1 34464U 93036TH  25338.68931548  .00150197  00000+0  58236-2 0  9995", "line2": "2 34464  73.9903  95.3572 0017128 267.4892  92.4347 15.25289765897173"}}, "geometry": {"type": "Point", "coordinates": [25.460142901650485, -72.60921283094268]}}, {"type": "Feature", "properties": {"norad_id": 34468, "name": "COSMOS 2251 DEB", "group": "cosmos-2251-debris", "lat": 19.404110636091904, "lon": -56.55278021860462, "alt_km": 756.5221205386988, "timestamp": "2025-12-06T07:31:40.630170+00:00", "meta": {"OBJECT_NAME": "COSMOS 2251 DEB", "OBJECT_ID": "1993-036TM", "EPOCH": "2025-12-05T04:14:51.700128", "MEAN_MOTION": 14.47593635, "ECCENTRICITY": 0.0076304, "INCLINATION": 74.0116, "RA_OF_ASC_NODE": 131.3722, "ARG_OF_PERICENTER": 277.8064, "MEAN_ANOMALY": 81.4437, "EPHEMERIS_TYPE": 0, "CLASSIFICATION_TYPE": "U", "NORAD_CAT_ID": 34468, "ELEMENT_SET_NO": 999, "REV_AT_EPOCH": 88352, "BSTAR": 0.00056133094, "MEAN_MOTION_DOT": 2.115e-05, "MEAN_MOTION_DDOT": 0}, "tle": {"line1": "1 34468U 93036TM  25339.17698727  .00002115  00000+0  56133-3 0  9994", "line2": "2 34468  74.0116 131.3722 0076304 277.8064  81.4437 14.47593635883529"}}, "geometry": {"type": "Point", "coordinates": [-56.55278021860462, 19.404110636091904]}}, {"type": "Feature", "properties": {"norad_id": 34472, "name": "COSMOS 2251 DEB", "group": "cosmos-2251-debris", "lat": 12.049603455027778, "lon": -74.7786584790122, "alt_km": 924.3333991427644, "timestamp": "2025-12-06T07:31:40.630180+00:00", "meta": {"OBJECT_NAME": "COSMOS 2251 DEB", "OBJECT_ID": "1993-036TR", "EPOCH": "2025-12-03T15:36:16.702848", "MEAN_MOTION": 13.70310012, "ECCENTRICITY": 0.03271295, "INCLINATION": 74.0821, "RA_OF_ASC_NODE": 113.0928, "ARG_OF_PERICENTER": 246.0443, "MEAN_ANOMALY": 110.6103, "EPHEMERIS_TYPE": 0, "CLASSIFICATION_TYPE": "U", "NORAD_CAT_ID": 34472, "ELEMENT_SET_NO": 999, "REV_AT_EPOCH": 83602, "BSTAR": 0.0015293427, "MEAN_MOTION_DOT": 1.946e-05, "MEAN_MOTION_DDOT": 0}, "tle": {"line1": "1 34472U 93036TR  25337.65019332  .00001946  00000+0  15293-2 0  9991", "line2": "2 34472  74.0821 113.0928 0327129 246.0443 110.6103 13.70310012836024"}}, "geometry": {"type": "Point", "coordinates": [-74.7786584790122, 12.049603455027778]}}, {"type": "Feature", "properties": {"norad_id": 34474, "name": "COSMOS 2251 DEB", "group": "cosmos-2251-debris", "lat": -12.500243765153716, "lon": 161.0252936984169, "alt_km": 984.6066843721601, "timestamp": "2025-12-06T07:31:40.630190+00:00", "meta": {"OBJECT_NAME": "COSMOS 2251 DEB", "OBJECT_ID": "1993-036TT", "EPOCH": "2025-12-05T06:46:47.181792", "MEAN_MOTION": 14.06339335, "ECCENTRICITY": 0.01978665, "INCLINATION": 74.078, "RA_OF_ASC_NODE": 339.1961, "ARG_OF_PERICENTER": 54.9729, "MEAN_ANOMALY": 317.826, "EPHEMERIS_TYPE": 0, "CLASSIFICATION_TYPE": "U", "NORAD_CAT_ID": 34474, "ELEMENT_SET_NO": 999, "REV_AT_EPOCH": 85404, "BSTAR": 0.0027374661, "MEAN_MOTION_DOT": 5.371e-05, "MEAN_MOTION_DDOT": 0}, "tle": {"line1": "1 34474U 93036TT  25339.28249053  .00005371  00000+0  27375-2 0  9999", "line2": "2 34474  74.0780 339.1961 0197866  54.9729 317.8260 14.06339335854040"}}, "geometry": {"type": "Point", "coordinates": [161.0252936984169, -12.500243765153716]}}, {"type": "Feature", "properties": {"norad_id": 34476, "name": "COSMOS 2251 DEB", "group": "cosmos-2251-debris", "lat": 9.48229798698586, "lon": 96.08122957446686, "alt_km": 821.1275207603312, "timestamp": "2025-12-06T07:31:40.630201+00:00", "meta": {"OBJECT_NAME": "COSMOS 2251 DEB", "OBJECT_ID": "1993-036TV", "EPOCH": "2025-12-05T07:09:34.341696", "MEAN_MOTION": 13.81918962, "ECCENTRICITY": 0.03193226, "INCLINATION": 74.0063, "RA_OF_ASC_NODE": 95.0458, "ARG_OF_PERICENTER": 316.2456, "MEAN_ANOMALY": 41.3754, "EPHEMERIS_TYPE": 0, "CLASSIFICATION_TYPE": "U", "NORAD_CAT_ID": 34476, "ELEMENT_SET_NO": 999, "REV_AT_EPOCH": 83535, "BSTAR": 0.0051704592, "MEAN_MOTION_DOT": 8.167e-05, "MEAN_MOTION_DDOT": 0}, "tle": {"line1": "1 34476U 93036TV  25339.29831414  .00008167  00000+0  51705-2 0  9990", "line2": "2 34476  74.0063  95.0458 0319322 316.2456  41.3754 13.81918962835350"}}, "geometry": {"type": "Point", "coordinates": [96.08122957446686, 9.48229798698586]}}, {"type": "Feature", "properties": {"norad_id": 34477, "name": "COSMOS 2251 DEB", "group": "cosmos-2251-debris", "lat": -26.73411586877571, "lon": 73.42534582811527, "alt_km": 683.1847876289721, "timestamp": "2025-12-06T07:31:40.630211+00:00", "meta": {"OBJECT_NAME": "COSMOS 2251 DEB", "OBJECT_ID": "1993-036TW", "EPOCH": "2025-12-05T07:02:03.901344", "MEAN_MOTION": 14.56774424, "ECCENTRICITY": 0.00769265, "INCLINATION": 73.9794, "RA_OF_ASC_NODE": 83.6901, "ARG_OF_PERICENTER": 272.1928, "MEAN_ANOMALY": 109.1516, "EPHEMERIS_TYPE": 0, "CLASSIFICATION_TYPE": "U", "NORAD_CAT_ID": 34477, "ELEMENT_SET_NO": 999, "REV_AT_EPOCH": 88517, "BSTAR": 0.0017025635, "MEAN_MOTION_DOT": 7.909e-05, "MEAN_MOTION_DDOT": 0}, "tle": {"line1": "1 34477U 93036TW  25339.29310071  .00007909  00000+0  17026-2 0  9993", "line2": "2 34477  73.9794  83.6901 0076926 272.1928 109.1516 14.56774424885170"}}, "geometry": {"type": "Point", "coordinates": [73.42534582811527, -26.73411586877571]}}, {"type": "Feature", "properties": {"norad_id": 34478, "name": "COSMOS 2251 DEB", "group": "cosmos-2251-debris", "lat": 60.019614724607244, "lon": 170.3614048193556, "alt_km": 553.6271372050696, "timestamp": "2025-12-06T07:31:40.630221+00:00", "meta": {"OBJECT_NAME": "COSMOS 2251 DEB", "OBJECT_ID": "1993-036TX", "EPOCH": "2025-12-05T06:02:31.587072", "MEAN_MOTION": 15.07091212, "ECCENTRICITY": 0.00364396, "INCLINATION": 74.041, "RA_OF_ASC_NODE": 22.2811, "ARG_OF_PERICENTER": 245.2361, "MEAN_ANOMALY": 231.5361, "EPHEMERIS_TYPE": 0, "CLASSIFICATION_TYPE": "U", "NORAD_CAT_ID": 34478, "ELEMENT_SET_NO": 999, "REV_AT_EPOCH": 88860, "BSTAR": 0.0044649187, "MEAN_MOTION_DOT": 0.00068663, "MEAN_MOTION_DDOT": 0}, "tle": {"line1": "1 34478U 93036TX  25339.25175448  .00068663  00000+0  44649-2 0  9992", "line2": "2 34478  74.0410  22.2811 0036439 245.2361 231.5361 15.07091212888607"}}, "geometry": {"type": "Point", "coordinates": [170.3614048193556, 60.019614724607244]}}, {"type": "Feature", "properties": {"norad_id": 34481, "name": "COSMOS 2251 DEB", "group": "cosmos-2251-debris", "lat": 6.369792636377481, "lon": 67.06845122148869, "alt_km": 814.7724436456765, "timestamp": "2025-12-06T07:31:40.630231+00:00", "meta": {"OBJECT_NAME": "COSMOS 2251 DEB", "OBJECT_ID": "1993-036UA", "EPOCH": "2025-12-04T07:09:24.347808", "MEAN_MOTION": 14.32498705, "ECCENTRICITY": 0.0070939, "INCLINATION": 73.9803, "RA_OF_ASC_NODE": 68.9209, "ARG_OF_PERICENTER": 244.7768, "MEAN_ANOMALY": 171.641, "EPHEMERIS_TYPE": 0, "CLASSIFICATION_TYPE": "U", "NORAD_CAT_ID": 34481, "ELEMENT_SET_NO": 999, "REV_AT_EPOCH": 87328, "BSTAR": 0.0015806, "MEAN_MOTION_DOT": 4.38e-05, "MEAN_MOTION_DDOT": 0}, "tle": {"line1": "1 34481U 93036UA  25338.29819847  .00004380  00000+0  15806-2 0  9996", "line2": "2 34481  73.9803  68.9209 0070939 244.7768 171.6410 14.32498705873283"}}, "geometry": {"type": "Point", "coordinates": [67.06845122148869, 6.369792636377481]}}, {"type": "Feature", "properties": {"norad_id": 34482, "name": "COSMOS 2251 DEB", "group": "cosmos-2251-debris", "lat": 49.5397442902566, "lon": -104.35876119236201, "alt_km": 673.1050987200852, "timestamp": "2025-12-06T07:31:40.630241+00:00", "meta": {"OBJECT_NAME": "COSMOS 2251 DEB", "OBJECT_ID": "1993-036UB", "EPOCH": "2025-12-05T04:11:34.913760", "MEAN_MOTION": 14.68923526, "ECCENTRICITY": 0.00456419, "INCLINATION": 74.0374, "RA_OF_ASC_NODE": 238.2355, "ARG_OF_PERICENTER": 299.5223, "MEAN_ANOMALY": 211.8241, "EPHEMERIS_TYPE": 0, "CLASSIFICATION_TYPE": "U", "NORAD_CAT_ID": 34482, "ELEMENT_SET_NO": 999, "REV_AT_EPOCH": 88076, "BSTAR": 0.0044729328, "MEAN_MOTION_DOT": 0.00026669, "MEAN_MOTION_DDOT": 0}, "tle": {"line1": "1 34482U 93036UB  25339.17470965  .00026669  00000+0  44729-2 0  9999", "line2": "2 34482  74.0374 238.2355 0045641 299.5223 211.8241 14.68923526880762"}}, "geometry": {"type": "Point", "coordinates": [-104.35876119236201, 49.5397442902566]}}, {"type": "Feature", "properties": {"norad_id": 34544, "name": "COSMOS 2251 DEB", "group": "cosmos-2251-debris", "lat": 58.00869155669593, "lon": -118.05724662929573, "alt_km": 1334.9163347057329, "timestamp": "2025-12-06T07:31:40.630251+00:00", "meta": {"OBJECT_NAME": "COSMOS 2251 DEB", "OBJECT_ID": "1993-036UE", "EPOCH": "2025-12-05T01:26:01.156704", "MEAN_MOTION": 13.54656557, "ECCENTRICITY": 0.03845847, "INCLINATION": 73.9151, "RA_OF_ASC_NODE": 216.463, "ARG_OF_PERICENTER": 246.3138, "MEAN_ANOMALY": 182.688, "EPHEMERIS_TYPE": 0, "CLASSIFICATION_TYPE": "U", "NORAD_CAT_ID": 34544, "ELEMENT_SET_NO": 999, "REV_AT_EPOCH": 82778, "BSTAR": 0.00039145095, "MEAN_MOTION_DOT": 4.06e-06, "MEAN_MOTION_DDOT": 0}, "tle": {"line1": "1 34544U 93036UE  25339.05973561  .00000406  00000+0  39145-3 0  9993", "line2": "2 34544  73.9151 216.4630 0384584 246.3138 182.6880 13.54656557827781"}}, "geometry": {"type": "Point", "coordinates": [-118.05724662929573, 58.00869155669593]}}]}